[{"OBJECT_NAME":"QIANFAN-86","OBJECT_ID":"2025-046P","EPOCH":"2026-02-01T21:10:29.436096","MEAN_MOTION":13.50999916,"ECCENTRICITY":0.00114636,"INCLINATION":88.9798,"RA_OF_ASC_NODE":314.5016,"ARG_OF_PERICENTER":353.7567,"MEAN_ANOMALY":6.3439,"EPHEMERIS_TYPE":0,"CLASSIFICATION_TYPE":"U","NORAD_CAT_ID":63172,"ELEMENT_SET_NO":999,"REV_AT_EPOCH":5445,"BSTAR":0.00030946229,"MEAN_MOTION_DOT":2.12e-6,"MEAN_MOTION_DDOT":0},{"OBJECT_NAME":"QIANFAN-87","OBJECT_ID":"2025-046Q","EPOCH":"2026-02-01T22:15:58.774176","MEAN_MOTION":13.50997387,"ECCENTRICITY":0.00119362,"INCLINATION":88.9794,"RA_OF_ASC_NODE":314.6066,"ARG_OF_PERICENTER":348.5514,"MEAN_ANOMALY":11.5364,"EPHEMERIS_TYPE":0,"CLASSIFICATION_TYPE":"U","NORAD_CAT_ID":63173,"ELEMENT_SET_NO":999,"REV_AT_EPOCH":5439,"BSTAR":0.00029174665,"MEAN_MOTION_DOT":2.0e-6,"MEAN_MOTION_DDOT":0},{"OBJECT_NAME":"QIANFAN-88","OBJECT_ID":"2025-046R","EPOCH":"2026-02-01T20:52:36.653088","MEAN_MOTION":13.50991979,"ECCENTRICITY":0.00126165,"INCLINATION":88.9797,"RA_OF_ASC_NODE":314.5684,"ARG_OF_PERICENTER":356.3529,"MEAN_ANOMALY":3.7528,"EPHEMERIS_TYPE":0,"CLASSIFICATION_TYPE":"U","NORAD_CAT_ID":63174,"ELEMENT_SET_NO":999,"REV_AT_EPOCH":5441,"BSTAR":0.00027668457,"MEAN_MOTION_DOT":1.91e-6,"MEAN_MOTION_DDOT":0},{"OBJECT_NAME":"QIANFAN-89","OBJECT_ID":"2025-046S","EPOCH":"2026-02-01T21:46:05.033280","MEAN_MOTION":13.50969338,"ECCENTRICITY":0.00166447,"INCLINATION":88.9797,"RA_OF_ASC_NODE":314.7537,"ARG_OF_PERICENTER":344.9265,"MEAN_ANOMALY":15.1388,"EPHEMERIS_TYPE":0,"CLASSIFICATION_TYPE":"U","NORAD_CAT_ID":63175,"ELEMENT_SET_NO":999,"REV_AT_EPOCH":5431,"BSTAR":0.00029546799,"MEAN_MOTION_DOT":2.03e-6,"MEAN_MOTION_DDOT":0},{"OBJECT_NAME":"QIANFAN-90","OBJECT_ID":"2025-046T","EPOCH":"2026-02-01T22:27:28.109664","MEAN_MOTION":13.50970527,"ECCENTRICITY":0.0013537,"INCLINATION":88.9797,"RA_OF_ASC_NODE":314.7231,"ARG_OF_PERICENTER":344.7349,"MEAN_ANOMALY":15.3392,"EPHEMERIS_TYPE":0,"CLASSIFICATION_TYPE":"U","NORAD_CAT_ID":63176,"ELEMENT_SET_NO":999,"REV_AT_EPOCH":5433,"BSTAR":0.00028514032,"MEAN_MOTION_DOT":1.96e-6,"MEAN_MOTION_DDOT":0},{"OBJECT_NAME":"QIANFAN-91","OBJECT_ID":"2025-233A","EPOCH":"2026-02-01T23:14:25.166976","MEAN_MOTION":13.50991684,"ECCENTRICITY":0.00018006,"INCLINATION":88.9908,"RA_OF_ASC_NODE":56.8876,"ARG_OF_PERICENTER":89.5512,"MEAN_ANOMALY":270.5846,"EPHEMERIS_TYPE":0,"CLASSIFICATION_TYPE":"U","NORAD_CAT_ID":66033,"ELEMENT_SET_NO":999,"REV_AT_EPOCH":1492,"BSTAR":6.0512299e-5,"MEAN_MOTION_DOT":5.1e-7,"MEAN_MOTION_DDOT":0},{"OBJECT_NAME":"QIANFAN-92","OBJECT_ID":"2025-233B","EPOCH":"2026-02-01T23:26:14.983584","MEAN_MOTION":13.50995255,"ECCENTRICITY":0.00020276,"INCLINATION":88.9892,"RA_OF_ASC_NODE":56.8806,"ARG_OF_PERICENTER":90.0946,"MEAN_ANOMALY":270.0437,"EPHEMERIS_TYPE":0,"CLASSIFICATION_TYPE":"U","NORAD_CAT_ID":66034,"ELEMENT_SET_NO":999,"REV_AT_EPOCH":1492,"BSTAR":5.0194506e-5,"MEAN_MOTION_DOT":4.4e-7,"MEAN_MOTION_DDOT":0},{"OBJECT_NAME":"QIANFAN-93","OBJECT_ID":"2025-233C","EPOCH":"2026-02-01T21:51:26.574336","MEAN_MOTION":13.5099449,"ECCENTRICITY":0.00018637,"INCLINATION":88.9918,"RA_OF_ASC_NODE":56.9026,"ARG_OF_PERICENTER":88.8485,"MEAN_ANOMALY":271.288,"EPHEMERIS_TYPE":0,"CLASSIFICATION_TYPE":"U","NORAD_CAT_ID":66035,"ELEMENT_SET_NO":999,"REV_AT_EPOCH":1491,"BSTAR":6.8454075e-5,"MEAN_MOTION_DOT":5.6e-7,"MEAN_MOTION_DDOT":0},{"OBJECT_NAME":"QIANFAN-94","OBJECT_ID":"2025-233D","EPOCH":"2026-02-01T23:17:09.988800","MEAN_MOTION":13.50141681,"ECCENTRICITY":0.00151433,"INCLINATION":88.9916,"RA_OF_ASC_NODE":56.8039,"ARG_OF_PERICENTER":238.2959,"MEAN_ANOMALY":121.6716,"EPHEMERIS_TYPE":0,"CLASSIFICATION_TYPE":"U","NORAD_CAT_ID":66036,"ELEMENT_SET_NO":999,"REV_AT_EPOCH":1497,"BSTAR":5.6997783e-5,"MEAN_MOTION_DOT":4.8e-7,"MEAN_MOTION_DDOT":0},{"OBJECT_NAME":"QIANFAN-95","OBJECT_ID":"2025-233E","EPOCH":"2026-01-31T01:33:18.914400","MEAN_MOTION":13.79304507,"ECCENTRICITY":0.00094134,"INCLINATION":88.9917,"RA_OF_ASC_NODE":56.5678,"ARG_OF_PERICENTER":265.6485,"MEAN_ANOMALY":94.3607,"EPHEMERIS_TYPE":0,"CLASSIFICATION_TYPE":"U","NORAD_CAT_ID":66037,"ELEMENT_SET_NO":999,"REV_AT_EPOCH":1494,"BSTAR":-2.2593979,"MEAN_MOTION_DOT":-0.02153043,"MEAN_MOTION_DDOT":0},{"OBJECT_NAME":"QIANFAN-96","OBJECT_ID":"2025-233F","EPOCH":"2026-02-01T22:21:05.055264","MEAN_MOTION":13.5099213,"ECCENTRICITY":0.00017379,"INCLINATION":88.991,"RA_OF_ASC_NODE":56.9022,"ARG_OF_PERICENTER":89.2645,"MEAN_ANOMALY":270.8705,"EPHEMERIS_TYPE":0,"CLASSIFICATION_TYPE":"U","NORAD_CAT_ID":66038,"ELEMENT_SET_NO":999,"REV_AT_EPOCH":1491,"BSTAR":6.352856e-5,"MEAN_MOTION_DOT":5.3e-7,"MEAN_MOTION_DDOT":0},{"OBJECT_NAME":"QIANFAN-97","OBJECT_ID":"2025-233G","EPOCH":"2026-02-01T21:57:23.718240","MEAN_MOTION":13.50993467,"ECCENTRICITY":0.00018234,"INCLINATION":88.9913,"RA_OF_ASC_NODE":56.8836,"ARG_OF_PERICENTER":89.6108,"MEAN_ANOMALY":270.5252,"EPHEMERIS_TYPE":0,"CLASSIFICATION_TYPE":"U","NORAD_CAT_ID":66039,"ELEMENT_SET_NO":999,"REV_AT_EPOCH":1492,"BSTAR":5.0815455e-5,"MEAN_MOTION_DOT":4.5e-7,"MEAN_MOTION_DDOT":0},{"OBJECT_NAME":"QIANFAN-98","OBJECT_ID":"2025-233H","EPOCH":"2026-02-01T18:25:28.139520","MEAN_MOTION":13.48660214,"ECCENTRICITY":0.00203479,"INCLINATION":88.9886,"RA_OF_ASC_NODE":56.641,"ARG_OF_PERICENTER":230.2361,"MEAN_ANOMALY":129.6997,"EPHEMERIS_TYPE":0,"CLASSIFICATION_TYPE":"U","NORAD_CAT_ID":66040,"ELEMENT_SET_NO":999,"REV_AT_EPOCH":1504,"BSTAR":-3.4767728,"MEAN_MOTION_DOT":-0.02031052,"MEAN_MOTION_DDOT":0},{"OBJECT_NAME":"QIANFAN-99","OBJECT_ID":"2025-233J","EPOCH":"2026-02-01T22:15:09.478656","MEAN_MOTION":13.50993352,"ECCENTRICITY":0.00019622,"INCLINATION":88.9914,"RA_OF_ASC_NODE":56.8854,"ARG_OF_PERICENTER":101.3739,"MEAN_ANOMALY":258.7633,"EPHEMERIS_TYPE":0,"CLASSIFICATION_TYPE":"U","NORAD_CAT_ID":66041,"ELEMENT_SET_NO":999,"REV_AT_EPOCH":1492,"BSTAR":5.9427351e-5,"MEAN_MOTION_DOT":5.0e-7,"MEAN_MOTION_DDOT":0},{"OBJECT_NAME":"QIANFAN-100","OBJECT_ID":"2025-233K","EPOCH":"2026-02-01T22:03:17.395776","MEAN_MOTION":13.50994689,"ECCENTRICITY":0.00018508,"INCLINATION":88.9925,"RA_OF_ASC_NODE":56.7982,"ARG_OF_PERICENTER":88.6454,"MEAN_ANOMALY":271.491,"EPHEMERIS_TYPE":0,"CLASSIFICATION_TYPE":"U","NORAD_CAT_ID":66042,"ELEMENT_SET_NO":999,"REV_AT_EPOCH":1497,"BSTAR":6.5731961e-5,"MEAN_MOTION_DOT":5.4e-7,"MEAN_MOTION_DDOT":0},{"OBJECT_NAME":"QIANFAN-101","OBJECT_ID":"2025-233L","EPOCH":"2026-02-01T22:28:27.352416","MEAN_MOTION":14.2670612,"ECCENTRICITY":0.00132763,"INCLINATION":88.9914,"RA_OF_ASC_NODE":56.1183,"ARG_OF_PERICENTER":220.6483,"MEAN_ANOMALY":139.3721,"EPHEMERIS_TYPE":0,"CLASSIFICATION_TYPE":"U","NORAD_CAT_ID":66043,"ELEMENT_SET_NO":999,"REV_AT_EPOCH":1534,"BSTAR":0.00010787817,"MEAN_MOTION_DOT":2.76e-6,"MEAN_MOTION_DDOT":0},{"OBJECT_NAME":"QIANFAN-102","OBJECT_ID":"2025-233M","EPOCH":"2026-01-29T13:04:57.961920","MEAN_MOTION":13.54164043,"ECCENTRICITY":0.00091304,"INCLINATION":88.9909,"RA_OF_ASC_NODE":57.1465,"ARG_OF_PERICENTER":260.8246,"MEAN_ANOMALY":99.1875,"EPHEMERIS_TYPE":0,"CLASSIFICATION_TYPE":"U","NORAD_CAT_ID":66044,"ELEMENT_SET_NO":999,"REV_AT_EPOCH":1451,"BSTAR":-3.3683501,"MEAN_MOTION_DOT":-0.02135583,"MEAN_MOTION_DDOT":0}]
