QIANFAN-86              
1 63172U 25046P   26032.88228514  .00000212  00000+0  30946-3 0  9996
2 63172  88.9798 314.5016 0011463 353.7567   6.3439 13.50999916 54456
QIANFAN-87              
1 63173U 25046Q   26032.92776359  .00000200  00000+0  29175-3 0  9996
2 63173  88.9794 314.6066 0011936 348.5514  11.5364 13.50997387 54396
QIANFAN-88              
1 63174U 25046R   26032.86986867  .00000191  00000+0  27668-3 0  9991
2 63174  88.9797 314.5684 0012616 356.3529   3.7528 13.50991979 54413
QIANFAN-89              
1 63175U 25046S   26032.90700270  .00000203  00000+0  29547-3 0  9991
2 63175  88.9797 314.7537 0016644 344.9265  15.1388 13.50969338 54312
QIANFAN-90              
1 63176U 25046T   26032.93574201  .00000196  00000+0  28514-3 0  9992
2 63176  88.9797 314.7231 0013537 344.7349  15.3392 13.50970527 54334
QIANFAN-91              
1 66033U 25233A   26032.96834684  .00000051  00000+0  60512-4 0  9997
2 66033  88.9908  56.8876 0001800  89.5512 270.5846 13.50991684 14925
QIANFAN-92              
1 66034U 25233B   26032.97656231  .00000044  00000+0  50195-4 0  9997
2 66034  88.9892  56.8806 0002027  90.0946 270.0437 13.50995255 14920
QIANFAN-93              
1 66035U 25233C   26032.91072424  .00000056  00000+0  68454-4 0  9998
2 66035  88.9918  56.9026 0001863  88.8485 271.2880 13.50994490 14919
QIANFAN-94              
1 66036U 25233D   26032.97025450  .00000048  00000+0  56998-4 0  9993
2 66036  88.9916  56.8039 0015143 238.2959 121.6716 13.50141681 14972
QIANFAN-95              
1 66037U 25233E   26031.06480225 -.02153043  00000+0 -22594+1 0  9997
2 66037  88.9917  56.5678 0009413 265.6485  94.3607 13.79304507 14942
QIANFAN-96              
1 66038U 25233F   26032.93130851  .00000053  00000+0  63529-4 0  9997
2 66038  88.9910  56.9022 0001737  89.2645 270.8705 13.50992130 14913
QIANFAN-97              
1 66039U 25233G   26032.91485785  .00000045  00000+0  50815-4 0  9990
2 66039  88.9913  56.8836 0001823  89.6108 270.5252 13.50993467 14922
QIANFAN-98              
1 66040U 25233H   26032.76768680 -.02031052  00000+0 -34768+1 0  9994
2 66040  88.9886  56.6410 0020347 230.2361 129.6997 13.48660214 15048
QIANFAN-99              
1 66041U 25233J   26032.92719304  .00000050  00000+0  59427-4 0  9995
2 66041  88.9914  56.8854 0001962 101.3739 258.7633 13.50993352 14926
QIANFAN-100             
1 66042U 25233K   26032.91895134  .00000054  00000+0  65732-4 0  9991
2 66042  88.9925  56.7982 0001850  88.6454 271.4910 13.50994689 14976
QIANFAN-101             
1 66043U 25233L   26032.93642769  .00000276  00000+0  10788-3 0  9994
2 66043  88.9914  56.1183 0013276 220.6483 139.3721 14.26706120 15346
QIANFAN-102             
1 66044U 25233M   26029.54511530 -.02135583  00000+0 -33684+1 0  9990
2 66044  88.9909  57.1465 0009130 260.8246  99.1875 13.54164043 14515
